STARLINK-2022           
1 47643U 21012Z   23178.10754510  .00000557  00000+0  56275-4 0  9999
2 47643  53.0540 160.5601 0001206  88.1185 271.9942 15.06403754131040
